{
    "links": {
        "self": "http://www.neowsapp.com/rest/v1/neo/3412892?api_key=iIulBulltgU6a56xZRHN4H3l9WmuAYTsLGpBGhQ2"
    },
    "id": "3412892",
    "neo_reference_id": "3412892",
    "name": "(2008 KC6)",
    "designation": "2008 KC6",
    "nasa_jpl_url": "http://ssd.jpl.nasa.gov/sbdb.cgi?sstr=3412892",
    "absolute_magnitude_h": 25.1,
    "estimated_diameter": {
        "kilometers": {
            "estimated_diameter_min": 0.0253837029,
            "estimated_diameter_max": 0.0567596853
        },
        "meters": {
            "estimated_diameter_min": 25.3837029364,
            "estimated_diameter_max": 56.7596852866
        },
        "miles": {
            "estimated_diameter_min": 0.0157726969,
            "estimated_diameter_max": 0.0352688224
        },
        "feet": {
            "estimated_diameter_min": 83.279867942,
            "estimated_diameter_max": 186.2194458756
        }
    },
    "is_potentially_hazardous_asteroid": false,
    "close_approach_data": [
        {
            "close_approach_date": "2008-06-08",
            "close_approach_date_full": "2008-Jun-08 12:04",
            "epoch_date_close_approach": 1212926640000,
            "relative_velocity": {
                "kilometers_per_second": "13.4602390623",
                "kilometers_per_hour": "48456.8606241853",
                "miles_per_hour": "30109.2087584"
            },
            "miss_distance": {
                "astronomical": "0.0285764083",
                "lunar": "11.1162228287",
                "kilometers": "4274969.813930321",
                "miles": "2656343.0661115898"
            },
            "orbiting_body": "Earth"
        },
        {
            "close_approach_date": "2011-11-23",
            "close_approach_date_full": "2011-Nov-23 00:26",
            "epoch_date_close_approach": 1322007960000,
            "relative_velocity": {
                "kilometers_per_second": "15.5187864858",
                "kilometers_per_hour": "55867.6313489088",
                "miles_per_hour": "34713.9734901039"
            },
            "miss_distance": {
                "astronomical": "0.0785736817",
                "lunar": "30.5651621813",
                "kilometers": "11754455.420377979",
                "miles": "7303879.9128109502"
            },
            "orbiting_body": "Earth"
        },
        {
            "close_approach_date": "2079-06-06",
            "close_approach_date_full": "2079-Jun-06 14:41",
            "epoch_date_close_approach": 3453288060000,
            "relative_velocity": {
                "kilometers_per_second": "14.8369711749",
                "kilometers_per_hour": "53413.0962297746",
                "miles_per_hour": "33188.8208212175"
            },
            "miss_distance": {
                "astronomical": "0.0369590664",
                "lunar": "14.3770768296",
                "kilometers": "5528997.610628568",
                "miles": "3435559.8062195184"
            },
            "orbiting_body": "Earth"
        },
        {
            "close_approach_date": "2082-11-19",
            "close_approach_date_full": "2082-Nov-19 13:48",
            "epoch_date_close_approach": 3562321680000,
            "relative_velocity": {
                "kilometers_per_second": "13.4337549907",
                "kilometers_per_hour": "48361.5179666669",
                "miles_per_hour": "30049.9665387881"
            },
            "miss_distance": {
                "astronomical": "0.0590964357",
                "lunar": "22.9885134873",
                "kilometers": "8840700.905311959",
                "miles": "5493356.8122206742"
            },
            "orbiting_body": "Earth"
        },
        {
            "close_approach_date": "2142-06-13",
            "close_approach_date_full": "2142-Jun-13 05:35",
            "epoch_date_close_approach": 5441924100000,
            "relative_velocity": {
                "kilometers_per_second": "12.4953648055",
                "kilometers_per_hour": "44983.3132997611",
                "miles_per_hour": "27950.8815333988"
            },
            "miss_distance": {
                "astronomical": "0.0637803306",
                "lunar": "24.8105486034",
                "kilometers": "9541401.605655822",
                "miles": "5928752.0378694636"
            },
            "orbiting_body": "Earth"
        }
    ],
    "orbital_data": {
        "orbit_id": "8",
        "orbit_determination_date": "2017-04-06 09:03:22",
        "first_observation_date": "2008-05-29",
        "last_observation_date": "2008-06-02",
        "data_arc_in_days": 4,
        "observations_used": 20,
        "orbit_uncertainty": "8",
        "minimum_orbit_intersection": ".018452",
        "jupiter_tisserand_invariant": "4.741",
        "epoch_osculation": "2454616.5",
        "eccentricity": ".4391876444779502",
        "semi_major_axis": "1.353657467424559",
        "inclination": "11.80239760637185",
        "ascending_node_longitude": "72.19153352711909",
        "orbital_period": "575.2565892107024",
        "perihelion_distance": ".7591478328763794",
        "perihelion_argument": "265.6675323057217",
        "aphelion_distance": "1.948167101972739",
        "perihelion_time": "2454682.348707808054",
        "mean_anomaly": "318.7913719625093",
        "mean_motion": ".6258076947783398",
        "equinox": "J2000",
        "orbit_class": {
            "orbit_class_type": "APO",
            "orbit_class_description": "Near-Earth asteroid orbits which cross the Earth’s orbit similar to that of 1862 Apollo",
            "orbit_class_range": "a (semi-major axis) > 1.0 AU; q (perihelion) < 1.017 AU"
        }
    },
    "is_sentry_object": false
}